IRIDIUM 171             
1 43929U 19002H   25039.40952570  .00000633  00000+0  21878-3 0  9990
2 43929  86.4004 200.1504 0002278  83.3342 276.8113 14.34221771318186
IRIDIUM 170             
1 43930U 19002J   25038.97197713  .00000993  00000+0  15362-3 0  9993
2 43930  86.6123 200.1108 0002162 102.3262 257.8197 14.72246057326543
IRIDIUM 167             
1 43931U 19002K   25038.98456260  .00000580  00000+0  20004-3 0  9991
2 43931  86.3995 200.0946 0002450  91.9326 268.2150 14.34223471318124
IRIDIUM 181             
1 56726U 23068S   25039.13458873  .00000628  00000+0  18054-3 0  9999
2 56726  86.4466 263.1511 0002430  79.1008 281.0466 14.43305817 91176
IRIDIUM 177             
1 56727U 23068T   25039.49284527  .00002895  00000+0  37759-3 0  9993
2 56727  86.1988 203.1544 0001954  92.1556 267.9889 14.80214884 93332
IRIDIUM 174             
1 56728U 23068U   25038.94660105  .00000131  00000+0  13748-4 0  9997
2 56728  86.1994 203.5373 0002284  86.5085 273.6397 14.80230356 93256
IRIDIUM 178             
1 56729U 23068V   25039.00879054  .00000936  00000+0  11972-3 0  9990
2 56729  86.5752 232.1185 0002454  67.5153 292.6328 14.80237533 93266
IRIDIUM 179             
1 56730U 23068W   25039.07095785  .00000759  00000+0  96438-4 0  9994
2 56730  86.6754 239.1945 0002072  84.4404 275.7054 14.80238729 93272
